ONEWEB-0656             
1 55817U 23029X   24156.48452540  .00000052  00000+0  96587-4 0  9997
2 55817  87.9227  62.1811 0001449  61.4652 298.6627 13.20767607 63114
ONEWEB-0657             
1 55818U 23029Y   24156.52330047  .00000055  00000+0  10540-3 0  9997
2 55818  87.9152  92.7721 0001998  54.8446 305.2873 13.19723676 60950
ONEWEB-0658             
1 55819U 23029Z   24156.51858172  .00000046  00000+0  82731-4 0  9993
2 55819  87.9153  92.7088 0002699  80.3260 279.8178 13.19724202 60966
ONEWEB-0660             
1 55820U 23029AA  24156.52155767  .00000031  00000+0  49068-4 0  9996
2 55820  87.8969  77.4387 0002335  91.7541 268.3856 13.14502456 61832
ONEWEB-0661             
1 55821U 23029AB  24156.48031775  .00000094  00000+0  22006-3 0  9995
2 55821  87.8973  77.5136 0002154  93.2731 266.8645 13.14500872 61815
ONEWEB-0662             
1 55822U 23029AC  24156.51520890 -.00000080  00000+0 -24911-3 0  9995
2 55822  87.8970  77.5143 0002290  87.3663 272.7729 13.14502850 61862
ONEWEB-0663             
1 55823U 23029AD  24156.47767193  .00000071  00000+0  14329-3 0  9990
2 55823  87.9225  62.2434 0002259  87.8792 272.2600 13.20786700 63101
ONEWEB-0664             
1 55824U 23029AE  24156.47188328  .00000072  00000+0  14477-3 0  9993
2 55824  87.9227  62.2576 0001744  94.7756 265.3576 13.20769316 63105
